{"fetched_at":"2026-03-30T06:02:59Z","count":15439,"tles":[{"name":"STARLINK-36089","line1":"1 66947U 25286Y   26087.83513408  .00030619  00000+0  10412-2 0  9998","line2":"2 66947  53.1590 269.8303 0001119  63.0974 297.0141 15.30214802 18345","category":"Starlink"}]}