{
  "norad_id": 66947,
  "name": "STARLINK-36089",
  "history": [
    {
      "epoch": "2026-03-28T20:02:35.584512",
      "apogee_km": 475.9378958888865,
      "perigee_km": 474.4038514544436,
      "latitude_deg": 14.0911697693299,
      "longitude_deg": -125.12712832004763,
      "semi_major_axis_km": 6853.307873671665,
      "eccentricity": 0.00011192,
      "inclination_deg": 53.159,
      "raan_deg": 269.8303,
      "arg_perigee_deg": 63.0974,
      "mean_anomaly_deg": 297.0141,
      "mean_motion_rev_day": 15.30214802
    }
  ]
}